KUIPER-00204            
1 67145U 25301N   26003.10580686  .00004648  00000+0  14113-3 0  9993
2 67145  51.8748  21.9467 0003158  79.6083 280.5259 15.36041595  3763
KUIPER-00210            
1 67146U 25301P   26003.13304854  .00047296  00000+0  13903-2 0  9999
2 67146  51.8602  22.1209 0010395 173.9468 186.1645 15.34590983  3821
KUIPER-00221            
1 67147U 25301Q   26003.11512567  .00049073  00000+0  13767-2 0  9993
2 67147  51.8723  22.0138 0004963 135.8079 224.3304 15.36077118  3655
KUIPER-00232            
1 67148U 25301R   26003.10368423  .00038923  00000+0  10642-2 0  9994
2 67148  51.8746  21.9370 0002358  69.6334 290.4905 15.36993197  3656
KUIPER-00241            
1 67149U 25301S   26003.10904874  .00041618  00000+0  11534-2 0  9997
2 67149  51.8746  21.9703 0002834 114.9479 245.1802 15.36539388  3987
KUIPER-00245            
1 67150U 25301T   26003.11606979 -.00050792  00000+0 -14433-2 0  9991
2 67150  51.8729  22.0197 0004887 122.0622 238.0839 15.35604958  3659
KUIPER-00246            
1 67151U 25301U   26003.11245561  .00050273  00000+0  14011-2 0  9992
2 67151  51.8739  21.9952 0003904 133.3827 226.7485 15.36277120  3670
KUIPER-00247            
1 67152U 25301V   26003.13509204  .00022451  00000+0  67131-3 0  9991
2 67152  51.8632  22.1374 0011185 177.3728 182.7317 15.34427666  3655
KUIPER-00248            
1 67153U 25301W   26003.12721899  .00042981  00000+0  12435-2 0  9993
2 67153  51.8677  22.0903 0008896 164.4594 195.6666 15.35149112  3822
KUIPER-00249            
1 67154U 25301X   26003.12520428  .00043004  00000+0  12390-2 0  9996
2 67154  51.8654  22.0755 0008374 161.3636 198.7658 15.35282313  3654
KUIPER-00250            
1 67155U 25301Y   26003.11928825  .00044263  00000+0  12533-2 0  9996
2 67155  51.8718  22.0410 0006472 150.4762 209.6590 15.35828091  3689
KUIPER-00251            
1 67156U 25301Z   26003.12613100  .00028004  00000+0  81421-3 0  9993
2 67156  51.8666  22.0828 0009196 158.3041 201.8335 15.35200941  3845
