CCSDS_OMM_VERS = 2.0
CREATION_DATE  = 
ORIGINATOR     = 

OBJECT_NAME    = KUIPER-00204
OBJECT_ID      = 2025-301N
CENTER_NAME    = EARTH
REF_FRAME      = TEME
TIME_SYSTEM    = UTC
MEAN_ELEMENT_THEORY = SGP/SGP4

EPOCH          = 2026-01-03T02:32:21.712704
MEAN_MOTION    = 15.36041595
ECCENTRICITY   = .0003158
INCLINATION    = 51.8748
RA_OF_ASC_NODE = 21.9467
ARG_OF_PERICENTER = 79.6083
MEAN_ANOMALY   = 280.5259

EPHEMERIS_TYPE = 0
CLASSIFICATION_TYPE = U
NORAD_CAT_ID   = 67145
ELEMENT_SET_NO = 999
REV_AT_EPOCH   = 376
BSTAR          = .14113E-3
MEAN_MOTION_DOT = .4648E-4
MEAN_MOTION_DDOT = 0

CCSDS_OMM_VERS = 2.0
CREATION_DATE  = 
ORIGINATOR     = 

OBJECT_NAME    = KUIPER-00210
OBJECT_ID      = 2025-301P
CENTER_NAME    = EARTH
REF_FRAME      = TEME
TIME_SYSTEM    = UTC
MEAN_ELEMENT_THEORY = SGP/SGP4

EPOCH          = 2026-01-03T03:11:35.393856
MEAN_MOTION    = 15.34590983
ECCENTRICITY   = .0010395
INCLINATION    = 51.8602
RA_OF_ASC_NODE = 22.1209
ARG_OF_PERICENTER = 173.9468
MEAN_ANOMALY   = 186.1645

EPHEMERIS_TYPE = 0
CLASSIFICATION_TYPE = U
NORAD_CAT_ID   = 67146
ELEMENT_SET_NO = 999
REV_AT_EPOCH   = 382
BSTAR          = .13903E-2
MEAN_MOTION_DOT = .47296E-3
MEAN_MOTION_DDOT = 0

CCSDS_OMM_VERS = 2.0
CREATION_DATE  = 
ORIGINATOR     = 

OBJECT_NAME    = KUIPER-00221
OBJECT_ID      = 2025-301Q
CENTER_NAME    = EARTH
REF_FRAME      = TEME
TIME_SYSTEM    = UTC
MEAN_ELEMENT_THEORY = SGP/SGP4

EPOCH          = 2026-01-03T02:45:46.857888
MEAN_MOTION    = 15.36077118
ECCENTRICITY   = .0004963
INCLINATION    = 51.8723
RA_OF_ASC_NODE = 22.0138
ARG_OF_PERICENTER = 135.8079
MEAN_ANOMALY   = 224.3304

EPHEMERIS_TYPE = 0
CLASSIFICATION_TYPE = U
NORAD_CAT_ID   = 67147
ELEMENT_SET_NO = 999
REV_AT_EPOCH   = 365
BSTAR          = .13767E-2
MEAN_MOTION_DOT = .49073E-3
MEAN_MOTION_DDOT = 0

CCSDS_OMM_VERS = 2.0
CREATION_DATE  = 
ORIGINATOR     = 

OBJECT_NAME    = KUIPER-00232
OBJECT_ID      = 2025-301R
CENTER_NAME    = EARTH
REF_FRAME      = TEME
TIME_SYSTEM    = UTC
MEAN_ELEMENT_THEORY = SGP/SGP4

EPOCH          = 2026-01-03T02:29:18.317472
MEAN_MOTION    = 15.36993197
ECCENTRICITY   = .0002358
INCLINATION    = 51.8746
RA_OF_ASC_NODE = 21.9370
ARG_OF_PERICENTER = 69.6334
MEAN_ANOMALY   = 290.4905

EPHEMERIS_TYPE = 0
CLASSIFICATION_TYPE = U
NORAD_CAT_ID   = 67148
ELEMENT_SET_NO = 999
REV_AT_EPOCH   = 365
BSTAR          = .10642E-2
MEAN_MOTION_DOT = .38923E-3
MEAN_MOTION_DDOT = 0

CCSDS_OMM_VERS = 2.0
CREATION_DATE  = 
ORIGINATOR     = 

OBJECT_NAME    = KUIPER-00241
OBJECT_ID      = 2025-301S
CENTER_NAME    = EARTH
REF_FRAME      = TEME
TIME_SYSTEM    = UTC
MEAN_ELEMENT_THEORY = SGP/SGP4

EPOCH          = 2026-01-03T02:37:01.811136
MEAN_MOTION    = 15.36539388
ECCENTRICITY   = .0002834
INCLINATION    = 51.8746
RA_OF_ASC_NODE = 21.9703
ARG_OF_PERICENTER = 114.9479
MEAN_ANOMALY   = 245.1802

EPHEMERIS_TYPE = 0
CLASSIFICATION_TYPE = U
NORAD_CAT_ID   = 67149
ELEMENT_SET_NO = 999
REV_AT_EPOCH   = 398
BSTAR          = .11534E-2
MEAN_MOTION_DOT = .41618E-3
MEAN_MOTION_DDOT = 0

CCSDS_OMM_VERS = 2.0
CREATION_DATE  = 
ORIGINATOR     = 

OBJECT_NAME    = KUIPER-00245
OBJECT_ID      = 2025-301T
CENTER_NAME    = EARTH
REF_FRAME      = TEME
TIME_SYSTEM    = UTC
MEAN_ELEMENT_THEORY = SGP/SGP4

EPOCH          = 2026-01-03T02:47:08.429856
MEAN_MOTION    = 15.35604958
ECCENTRICITY   = .0004887
INCLINATION    = 51.8729
RA_OF_ASC_NODE = 22.0197
ARG_OF_PERICENTER = 122.0622
MEAN_ANOMALY   = 238.0839

EPHEMERIS_TYPE = 0
CLASSIFICATION_TYPE = U
NORAD_CAT_ID   = 67150
ELEMENT_SET_NO = 999
REV_AT_EPOCH   = 365
BSTAR          = -.14433E-2
MEAN_MOTION_DOT = -.50792E-3
MEAN_MOTION_DDOT = 0

CCSDS_OMM_VERS = 2.0
CREATION_DATE  = 
ORIGINATOR     = 

OBJECT_NAME    = KUIPER-00246
OBJECT_ID      = 2025-301U
CENTER_NAME    = EARTH
REF_FRAME      = TEME
TIME_SYSTEM    = UTC
MEAN_ELEMENT_THEORY = SGP/SGP4

EPOCH          = 2026-01-03T02:41:56.164704
MEAN_MOTION    = 15.36277120
ECCENTRICITY   = .0003904
INCLINATION    = 51.8739
RA_OF_ASC_NODE = 21.9952
ARG_OF_PERICENTER = 133.3827
MEAN_ANOMALY   = 226.7485

EPHEMERIS_TYPE = 0
CLASSIFICATION_TYPE = U
NORAD_CAT_ID   = 67151
ELEMENT_SET_NO = 999
REV_AT_EPOCH   = 367
BSTAR          = .14011E-2
MEAN_MOTION_DOT = .50273E-3
MEAN_MOTION_DDOT = 0

CCSDS_OMM_VERS = 2.0
CREATION_DATE  = 
ORIGINATOR     = 

OBJECT_NAME    = KUIPER-00247
OBJECT_ID      = 2025-301V
CENTER_NAME    = EARTH
REF_FRAME      = TEME
TIME_SYSTEM    = UTC
MEAN_ELEMENT_THEORY = SGP/SGP4

EPOCH          = 2026-01-03T03:14:31.952256
MEAN_MOTION    = 15.34427666
ECCENTRICITY   = .0011185
INCLINATION    = 51.8632
RA_OF_ASC_NODE = 22.1374
ARG_OF_PERICENTER = 177.3728
MEAN_ANOMALY   = 182.7317

EPHEMERIS_TYPE = 0
CLASSIFICATION_TYPE = U
NORAD_CAT_ID   = 67152
ELEMENT_SET_NO = 999
REV_AT_EPOCH   = 365
BSTAR          = .67131E-3
MEAN_MOTION_DOT = .22451E-3
MEAN_MOTION_DDOT = 0

CCSDS_OMM_VERS = 2.0
CREATION_DATE  = 
ORIGINATOR     = 

OBJECT_NAME    = KUIPER-00248
OBJECT_ID      = 2025-301W
CENTER_NAME    = EARTH
REF_FRAME      = TEME
TIME_SYSTEM    = UTC
MEAN_ELEMENT_THEORY = SGP/SGP4

EPOCH          = 2026-01-03T03:03:11.720736
MEAN_MOTION    = 15.35149112
ECCENTRICITY   = .0008896
INCLINATION    = 51.8677
RA_OF_ASC_NODE = 22.0903
ARG_OF_PERICENTER = 164.4594
MEAN_ANOMALY   = 195.6666

EPHEMERIS_TYPE = 0
CLASSIFICATION_TYPE = U
NORAD_CAT_ID   = 67153
ELEMENT_SET_NO = 999
REV_AT_EPOCH   = 382
BSTAR          = .12435E-2
MEAN_MOTION_DOT = .42981E-3
MEAN_MOTION_DDOT = 0

CCSDS_OMM_VERS = 2.0
CREATION_DATE  = 
ORIGINATOR     = 

OBJECT_NAME    = KUIPER-00249
OBJECT_ID      = 2025-301X
CENTER_NAME    = EARTH
REF_FRAME      = TEME
TIME_SYSTEM    = UTC
MEAN_ELEMENT_THEORY = SGP/SGP4

EPOCH          = 2026-01-03T03:00:17.649792
MEAN_MOTION    = 15.35282313
ECCENTRICITY   = .0008374
INCLINATION    = 51.8654
RA_OF_ASC_NODE = 22.0755
ARG_OF_PERICENTER = 161.3636
MEAN_ANOMALY   = 198.7658

EPHEMERIS_TYPE = 0
CLASSIFICATION_TYPE = U
NORAD_CAT_ID   = 67154
ELEMENT_SET_NO = 999
REV_AT_EPOCH   = 365
BSTAR          = .1239E-2
MEAN_MOTION_DOT = .43004E-3
MEAN_MOTION_DDOT = 0

CCSDS_OMM_VERS = 2.0
CREATION_DATE  = 
ORIGINATOR     = 

OBJECT_NAME    = KUIPER-00250
OBJECT_ID      = 2025-301Y
CENTER_NAME    = EARTH
REF_FRAME      = TEME
TIME_SYSTEM    = UTC
MEAN_ELEMENT_THEORY = SGP/SGP4

EPOCH          = 2026-01-03T02:51:46.504800
MEAN_MOTION    = 15.35828091
ECCENTRICITY   = .0006472
INCLINATION    = 51.8718
RA_OF_ASC_NODE = 22.0410
ARG_OF_PERICENTER = 150.4762
MEAN_ANOMALY   = 209.6590

EPHEMERIS_TYPE = 0
CLASSIFICATION_TYPE = U
NORAD_CAT_ID   = 67155
ELEMENT_SET_NO = 999
REV_AT_EPOCH   = 368
BSTAR          = .12533E-2
MEAN_MOTION_DOT = .44263E-3
MEAN_MOTION_DDOT = 0

CCSDS_OMM_VERS = 2.0
CREATION_DATE  = 
ORIGINATOR     = 

OBJECT_NAME    = KUIPER-00251
OBJECT_ID      = 2025-301Z
CENTER_NAME    = EARTH
REF_FRAME      = TEME
TIME_SYSTEM    = UTC
MEAN_ELEMENT_THEORY = SGP/SGP4

EPOCH          = 2026-01-03T03:01:37.718400
MEAN_MOTION    = 15.35200941
ECCENTRICITY   = .0009196
INCLINATION    = 51.8666
RA_OF_ASC_NODE = 22.0828
ARG_OF_PERICENTER = 158.3041
MEAN_ANOMALY   = 201.8335

EPHEMERIS_TYPE = 0
CLASSIFICATION_TYPE = U
NORAD_CAT_ID   = 67156
ELEMENT_SET_NO = 999
REV_AT_EPOCH   = 384
BSTAR          = .81421E-3
MEAN_MOTION_DOT = .28004E-3
MEAN_MOTION_DDOT = 0

